{"type": "FeatureCollection", "features": [ {"type": "Feature", "properties": {"norad_id": 66397, "name": "STARLINK-35510", "group": "last-30-days", "lat": -23.812464392040813, "lon": 136.75385342734188, "alt_km": 422.8131254883083, "timestamp": "2025-12-05T16:54:13.484876+00:00", "meta": {"OBJECT_NAME": "STARLINK-35510", "OBJECT_ID": "2025-257T", "EPOCH": "2025-12-05T06:42:40.882176", "MEAN_MOTION": 15.4930324, "ECCENTRICITY": 0.00015769, "INCLINATION": 53.1591, "RA_OF_ASC_NODE": 299.4635, "ARG_OF_PERICENTER": 55.6954, "MEAN_ANOMALY": 304.4204, "EPHEMERIS_TYPE": 0, "CLASSIFICATION_TYPE": "U", "NORAD_CAT_ID": 66397, "ELEMENT_SET_NO": 999, "REV_AT_EPOCH": 522, "BSTAR": 0.0021734523, "MEAN_MOTION_DOT": 0.00122316, "MEAN_MOTION_DDOT": 0}, "tle": {"line1": "1 66397U 25257T   25339.27963984  .00122316  00000+0  21735-2 0  9996", "line2": "2 66397  53.1591 299.4635 0001576  55.6954 304.4204 15.49303240  5225"}}, "geometry": {"type": "Point", "coordinates": [136.75385342734188, -23.812464392040813]}}, {"type": "Feature", "properties": {"norad_id": 66398, "name": "STARLINK-35642", "group": "last-30-days", "lat": -26.46405137843567, "lon": 139.3384524819262, "alt_km": 425.1511641567304, "timestamp": "2025-12-05T16:54:13.484885+00:00", "meta": {"OBJECT_NAME": "STARLINK-35642", "OBJECT_ID": "2025-257U", "EPOCH": "2025-12-05T05:08:48.805728", "MEAN_MOTION": 15.49933402, "ECCENTRICITY": 9.989e-05, "INCLINATION": 53.1594, "RA_OF_ASC_NODE": 299.7669, "ARG_OF_PERICENTER": 357.8183, "MEAN_ANOMALY": 2.2822, "EPHEMERIS_TYPE": 0, "CLASSIFICATION_TYPE": "U", "NORAD_CAT_ID": 66398, "ELEMENT_SET_NO": 999, "REV_AT_EPOCH": 521, "BSTAR": -0.025665477, "MEAN_MOTION_DOT": -0.01317318, "MEAN_MOTION_DDOT": 0}, "tle": {"line1": "1 66398U 25257U   25339.21445377 -.01317318  00000+0 -25665-1 0  9998", "line2": "2 66398  53.1594 299.7669 0000998 357.8183   2.2822 15.49933402  5214"}}, "geometry": {"type": "Point", "coordinates": [139.3384524819262, -26.46405137843567]}}, {"type": "Feature", "properties": {"norad_id": 66399, "name": "STARLINK-35657", "group": "last-30-days", "lat": -28.322708005816846, "lon": 141.25280617663768, "alt_km": 423.2089605783776, "timestamp": "2025-12-05T16:54:13.484895+00:00", "meta": {"OBJECT_NAME": "STARLINK-35657", "OBJECT_ID": "2025-257V", "EPOCH": "2025-12-05T05:08:21.567264", "MEAN_MOTION": 15.50012684, "ECCENTRICITY": 9.654e-05, "INCLINATION": 53.1594, "RA_OF_ASC_NODE": 299.7653, "ARG_OF_PERICENTER": 53.0489, "MEAN_ANOMALY": 307.0609, "EPHEMERIS_TYPE": 0, "CLASSIFICATION_TYPE": "U", "NORAD_CAT_ID": 66399, "ELEMENT_SET_NO": 999, "REV_AT_EPOCH": 521, "BSTAR": -0.013025319, "MEAN_MOTION_DOT": -0.00681635, "MEAN_MOTION_DDOT": 0}, "tle": {"line1": "1 66399U 25257V   25339.21413851 -.00681635  00000+0 -13025-1 0  9993", "line2": "2 66399  53.1594 299.7653 0000965  53.0489 307.0609 15.50012684  5217"}}, "geometry": {"type": "Point", "coordinates": [141.25280617663768, -28.322708005816846]}}, {"type": "Feature", "properties": {"norad_id": 66400, "name": "STARLINK-35667", "group": "last-30-days", "lat": -29.495151869082765, "lon": 142.50892200662432, "alt_km": 422.8125836336076, "timestamp": "2025-12-05T16:54:13.484904+00:00", "meta": {"OBJECT_NAME": "STARLINK-35667", "OBJECT_ID": "2025-257W", "EPOCH": "2025-12-05T05:07:48.019872", "MEAN_MOTION": 15.49306176, "ECCENTRICITY": 0.00010953, "INCLINATION": 53.1596, "RA_OF_ASC_NODE": 299.762, "ARG_OF_PERICENTER": 93.5643, "MEAN_ANOMALY": 266.5491, "EPHEMERIS_TYPE": 0, "CLASSIFICATION_TYPE": "U", "NORAD_CAT_ID": 66400, "ELEMENT_SET_NO": 999, "REV_AT_EPOCH": 521, "BSTAR": 0.00092400776, "MEAN_MOTION_DOT": 0.00051274, "MEAN_MOTION_DDOT": 0}, "tle": {"line1": "1 66400U 25257W   25339.21375023  .00051274  00000+0  92401-3 0  9999", "line2": "2 66400  53.1596 299.7620 0001095  93.5643 266.5491 15.49306176  5210"}}, "geometry": {"type": "Point", "coordinates": [142.50892200662432, -29.495151869082765]}}, {"type": "Feature", "properties": {"norad_id": 66401, "name": "STARLINK-35668", "group": "last-30-days", "lat": -32.478946246439676, "lon": 145.91313068477578, "alt_km": 423.21707601198705, "timestamp": "2025-12-05T16:54:13.484914+00:00", "meta": {"OBJECT_NAME": "STARLINK-35668", "OBJECT_ID": "2025-257X", "EPOCH": "2025-12-05T05:06:53.192160", "MEAN_MOTION": 15.50047442, "ECCENTRICITY": 0.00018795, "INCLINATION": 53.1594, "RA_OF_ASC_NODE": 299.758, "ARG_OF_PERICENTER": 109.8667, "MEAN_ANOMALY": 250.2545, "EPHEMERIS_TYPE": 0, "CLASSIFICATION_TYPE": "U", "NORAD_CAT_ID": 66401, "ELEMENT_SET_NO": 999, "REV_AT_EPOCH": 521, "BSTAR": -0.013107939, "MEAN_MOTION_DOT": -0.00686536, "MEAN_MOTION_DDOT": 0}, "tle": {"line1": "1 66401U 25257X   25339.21311565 -.00686536  00000+0 -13108-1 0  9993", "line2": "2 66401  53.1594 299.7580 0001879 109.8667 250.2545 15.50047442  5211"}}, "geometry": {"type": "Point", "coordinates": [145.91313068477578, -32.478946246439676]}}, {"type": "Feature", "properties": {"norad_id": 66402, "name": "STARLINK-35644", "group": "last-30-days", "lat": -29.81517552806032, "lon": 142.85969821424433, "alt_km": 422.00350280194107, "timestamp": "2025-12-05T16:54:13.484924+00:00", "meta": {"OBJECT_NAME": "STARLINK-35644", "OBJECT_ID": "2025-257Y", "EPOCH": "2025-12-05T06:40:43.900032", "MEAN_MOTION": 15.50041017, "ECCENTRICITY": 9.514e-05, "INCLINATION": 53.1592, "RA_OF_ASC_NODE": 299.4536, "ARG_OF_PERICENTER": 148.2149, "MEAN_ANOMALY": 211.8918, "EPHEMERIS_TYPE": 0, "CLASSIFICATION_TYPE": "U", "NORAD_CAT_ID": 66402, "ELEMENT_SET_NO": 999, "REV_AT_EPOCH": 522, "BSTAR": -0.013016523, "MEAN_MOTION_DOT": -0.00681842, "MEAN_MOTION_DDOT": 0}, "tle": {"line1": "1 66402U 25257Y   25339.27828588 -.00681842  00000+0 -13017-1 0  9992", "line2": "2 66402  53.1592 299.4536 0000951 148.2149 211.8918 15.50041017  5220"}}, "geometry": {"type": "Point", "coordinates": [142.85969821424433, -29.81517552806032]}}, {"type": "Feature", "properties": {"norad_id": 66403, "name": "STARLINK-35602", "group": "last-30-days", "lat": -29.278046720064527, "lon": 142.27298707875556, "alt_km": 426.3798888354504, "timestamp": "2025-12-05T16:54:13.484933+00:00", "meta": {"OBJECT_NAME": "STARLINK-35602", "OBJECT_ID": "2025-257Z", "EPOCH": "2025-12-05T06:40:10.218720", "MEAN_MOTION": 15.47908574, "ECCENTRICITY": 0.00036862, "INCLINATION": 53.1592, "RA_OF_ASC_NODE": 299.451, "ARG_OF_PERICENTER": 297.9117, "MEAN_ANOMALY": 62.1518, "EPHEMERIS_TYPE": 0, "CLASSIFICATION_TYPE": "U", "NORAD_CAT_ID": 66403, "ELEMENT_SET_NO": 999, "REV_AT_EPOCH": 522, "BSTAR": -0.00078917003, "MEAN_MOTION_DOT": -0.00042019, "MEAN_MOTION_DDOT": 0}, "tle": {"line1": "1 66403U 25257Z   25339.27789605 -.00042019  00000+0 -78917-3 0  9998", "line2": "2 66403  53.1592 299.4510 0003686 297.9117  62.1518 15.47908574  5227"}}, "geometry": {"type": "Point", "coordinates": [142.27298707875556, -29.278046720064527]}}, {"type": "Feature", "properties": {"norad_id": 66404, "name": "STARLINK-35691", "group": "last-30-days", "lat": -33.642086644585504, "lon": 147.3319825954276, "alt_km": 422.7975095251031, "timestamp": "2025-12-05T16:54:13.484942+00:00", "meta": {"OBJECT_NAME": "STARLINK-35691", "OBJECT_ID": "2025-257AA", "EPOCH": "2025-12-05T06:39:12.533760", "MEAN_MOTION": 15.49346402, "ECCENTRICITY": 8.916e-05, "INCLINATION": 53.1591, "RA_OF_ASC_NODE": 299.4462, "ARG_OF_PERICENTER": 83.1042, "MEAN_ANOMALY": 277.0069, "EPHEMERIS_TYPE": 0, "CLASSIFICATION_TYPE": "U", "NORAD_CAT_ID": 66404, "ELEMENT_SET_NO": 999, "REV_AT_EPOCH": 522, "BSTAR": 0.002466521, "MEAN_MOTION_DOT": 0.00139387, "MEAN_MOTION_DDOT": 0}, "tle": {"line1": "1 66404U 25257AA  25339.27722840  .00139387  00000+0  24665-2 0  9990", "line2": "2 66404  53.1591 299.4462 0000891  83.1042 277.0069 15.49346402  5226"}}, "geometry": {"type": "Point", "coordinates": [147.3319825954276, -33.642086644585504]}}, {"type": "Feature", "properties": {"norad_id": 66405, "name": "STARLINK-35683", "group": "last-30-days", "lat": -34.8903907276437, "lon": 148.92150661530468, "alt_km": 423.2727041438002, "timestamp": "2025-12-05T16:54:13.484951+00:00", "meta": {"OBJECT_NAME": "STARLINK-35683", "OBJECT_ID": "2025-257AB", "EPOCH": "2025-12-05T03:32:55.910112", "MEAN_MOTION": 15.49296572, "ECCENTRICITY": 0.00011798, "INCLINATION": 53.1594, "RA_OF_ASC_NODE": 300.0603, "ARG_OF_PERICENTER": 87.8456, "MEAN_ANOMALY": 272.2688, "EPHEMERIS_TYPE": 0, "CLASSIFICATION_TYPE": "U", "NORAD_CAT_ID": 66405, "ELEMENT_SET_NO": 999, "REV_AT_EPOCH": 513, "BSTAR": 0.0011542428, "MEAN_MOTION_DOT": 0.00064247, "MEAN_MOTION_DDOT": 0}, "tle": {"line1": "1 66405U 25257AB  25339.14786933  .00064247  00000+0  11542-2 0  9992", "line2": "2 66405  53.1594 300.0603 0001179  87.8456 272.2688 15.49296572  5132"}}, "geometry": {"type": "Point", "coordinates": [148.92150661530468, -34.8903907276437]}}, {"type": "Feature", "properties": {"norad_id": 66406, "name": "STARLINK-34840", "group": "last-30-days", "lat": -38.759803773859645, "lon": 154.39651741587664, "alt_km": 423.04455371819495, "timestamp": "2025-12-05T16:54:13.484962+00:00", "meta": {"OBJECT_NAME": "STARLINK-34840", "OBJECT_ID": "2025-257AC", "EPOCH": "2025-12-05T06:37:13.755360", "MEAN_MOTION": 15.49345602, "ECCENTRICITY": 9.026e-05, "INCLINATION": 53.1589, "RA_OF_ASC_NODE": 299.4365, "ARG_OF_PERICENTER": 91.8287, "MEAN_ANOMALY": 268.2825, "EPHEMERIS_TYPE": 0, "CLASSIFICATION_TYPE": "U", "NORAD_CAT_ID": 66406, "ELEMENT_SET_NO": 999, "REV_AT_EPOCH": 516, "BSTAR": 0.0025802698, "MEAN_MOTION_DOT": 0.00145955, "MEAN_MOTION_DDOT": 0}, "tle": {"line1": "1 66406U 25257AC  25339.27585365  .00145955  00000+0  25803-2 0  9994", "line2": "2 66406  53.1589 299.4365 0000902  91.8287 268.2825 15.49345602  5163"}}, "geometry": {"type": "Point", "coordinates": [154.39651741587664, -38.759803773859645]}}]}